{
  "type": "FeatureCollection",
  "features": [
    {
      "type": "Feature",
      "properties": {
        "norad_id": 66590,
        "name": "STARLINK-35429",
        "group": "last-30-days",
        "lat": -32.33532290601449,
        "lon": -22.613739405256815,
        "alt_km": 445.8322291547511,
        "timestamp": "2025-12-26T05:31:11.215182+00:00",
        "meta_object_name": "STARLINK-35429",
        "meta_object_id": "2025-270C",
        "meta_epoch": "2025-12-25T17:37:41.590560",
        "meta_mean_motion": 15.40721997,
        "meta_eccentricity": 0.0001639,
        "meta_inclination": 43.002,
        "meta_ra_of_asc_node": 117.4547,
        "meta_arg_of_pericenter": 273.6487,
        "meta_mean_anomaly": 86.4182,
        "meta_ephemeris_type": 0,
        "meta_classification_type": "U",
        "meta_norad_cat_id": 66590,
        "meta_element_set_no": 999,
        "meta_rev_at_epoch": 646,
        "meta_bstar": 0.001733211,
        "meta_mean_motion_dot": 0.00072845,
        "meta_mean_motion_ddot": 0,
        "tle_line1": "1 66590U 25270C   25359.73450915  .00072845  00000+0  17332-2 0  9993",
        "tle_line2": "2 66590  43.0020 117.4547 0001639 273.6487  86.4182 15.40721997  6462"
      },
      "geometry": {
        "type": "Point",
        "coordinates": [
          -22.613739405256815,
          -32.33532290601449
        ]
      }
    },
    {
      "type": "Feature",
      "properties": {
        "norad_id": 66591,
        "name": "STARLINK-36058",
        "group": "last-30-days",
        "lat": -26.777151091211973,
        "lon": 81.5979116929809,
        "alt_km": 445.63617697838527,
        "timestamp": "2025-12-26T05:31:11.215193+00:00",
        "meta_object_name": "STARLINK-36058",
        "meta_object_id": "2025-270D",
        "meta_epoch": "2025-12-25T17:15:06.628608",
        "meta_mean_motion": 15.40713232,
        "meta_eccentricity": 0.00015985,
        "meta_inclination": 43.0013,
        "meta_ra_of_asc_node": 117.3312,
        "meta_arg_of_pericenter": 265.6343,
        "meta_mean_anomaly": 94.4331,
        "meta_ephemeris_type": 0,
        "meta_classification_type": "U",
        "meta_norad_cat_id": 66591,
        "meta_element_set_no": 999,
        "meta_rev_at_epoch": 635,
        "meta_bstar": 0.0012051754,
        "meta_mean_motion_dot": 0.00050395,
        "meta_mean_motion_ddot": 0,
        "tle_line1": "1 66591U 25270D   25359.71882672  .00050395  00000+0  12052-2 0  9991",
        "tle_line2": "2 66591  43.0013 117.3312 0001598 265.6343  94.4331 15.40713232  6356"
      },
      "geometry": {
        "type": "Point",
        "coordinates": [
          81.5979116929809,
          -26.777151091211973
        ]
      }
    },
    {
      "type": "Feature",
      "properties": {
        "norad_id": 66592,
        "name": "STARLINK-36066",
        "group": "last-30-days",
        "lat": 42.79585380790526,
        "lon": -148.59988060002084,
        "alt_km": 438.26411667705634,
        "timestamp": "2025-12-26T05:31:11.215203+00:00",
        "meta_object_name": "STARLINK-36066",
        "meta_object_id": "2025-270E",
        "meta_epoch": "2025-12-25T16:39:49.376736",
        "meta_mean_motion": 15.40707588,
        "meta_eccentricity": 0.00016284,
        "meta_inclination": 42.9987,
        "meta_ra_of_asc_node": 118.0173,
        "meta_arg_of_pericenter": 278.605,
        "meta_mean_anomaly": 81.4622,
        "meta_ephemeris_type": 0,
        "meta_classification_type": "U",
        "meta_norad_cat_id": 66592,
        "meta_element_set_no": 999,
        "meta_rev_at_epoch": 624,
        "meta_bstar": 0.00046997684,
        "meta_mean_motion_dot": 0.00019383,
        "meta_mean_motion_ddot": 0,
        "tle_line1": "1 66592U 25270E   25359.69432149  .00019383  00000+0  46998-3 0  9998",
        "tle_line2": "2 66592  42.9987 118.0173 0001628 278.6050  81.4622 15.40707588  6245"
      },
      "geometry": {
        "type": "Point",
        "coordinates": [
          -148.59988060002084,
          42.79585380790526
        ]
      }
    },
    {
      "type": "Feature",
      "properties": {
        "norad_id": 66593,
        "name": "STARLINK-36031",
        "group": "last-30-days",
        "lat": -1.2892003408705919,
        "lon": -63.89916129025009,
        "alt_km": 443.67336940770656,
        "timestamp": "2025-12-26T05:31:11.215215+00:00",
        "meta_object_name": "STARLINK-36031",
        "meta_object_id": "2025-270F",
        "meta_epoch": "2025-12-25T17:50:35.504736",
        "meta_mean_motion": 15.40707259,
        "meta_eccentricity": 0.00018776,
        "meta_inclination": 43.0021,
        "meta_ra_of_asc_node": 117.5214,
        "meta_arg_of_pericenter": 259.4699,
        "meta_mean_anomaly": 100.5946,
        "meta_ephemeris_type": 0,
        "meta_classification_type": "U",
        "meta_norad_cat_id": 66593,
        "meta_element_set_no": 999,
        "meta_rev_at_epoch": 635,
        "meta_bstar": 0.00071243351,
        "meta_mean_motion_dot": 0.00029579,
        "meta_mean_motion_ddot": 0,
        "tle_line1": "1 66593U 25270F   25359.74346649  .00029579  00000+0  71243-3 0  9993",
        "tle_line2": "2 66593  43.0021 117.5214 0001877 259.4699 100.5946 15.40707259  6358"
      },
      "geometry": {
        "type": "Point",
        "coordinates": [
          -63.89916129025009,
          -1.2892003408705919
        ]
      }
    },
    {
      "type": "Feature",
      "properties": {
        "norad_id": 66594,
        "name": "STARLINK-36032",
        "group": "last-30-days",
        "lat": -41.9369086614284,
        "lon": 39.863999289377325,
        "alt_km": 446.7750389585999,
        "timestamp": "2025-12-26T05:31:11.215225+00:00",
        "meta_object_name": "STARLINK-36032",
        "meta_object_id": "2025-270G",
        "meta_epoch": "2025-12-25T17:24:47.765376",
        "meta_mean_motion": 15.40743398,
        "meta_eccentricity": 5.928e-05,
        "meta_inclination": 42.9988,
        "meta_ra_of_asc_node": 117.3844,
        "meta_arg_of_pericenter": 314.5703,
        "meta_mean_anomaly": 45.5105,
        "meta_ephemeris_type": 0,
        "meta_classification_type": "U",
        "meta_norad_cat_id": 66594,
        "meta_element_set_no": 999,
        "meta_rev_at_epoch": 616,
        "meta_bstar": 0.0011846093,
        "meta_mean_motion_dot": 0.00049574,
        "meta_mean_motion_ddot": 0,
        "tle_line1": "1 66594U 25270G   25359.72555284  .00049574  00000+0  11846-2 0  9998",
        "tle_line2": "2 66594  42.9988 117.3844 0000592 314.5703  45.5105 15.40743398  6166"
      },
      "geometry": {
        "type": "Point",
        "coordinates": [
          39.863999289377325,
          -41.9369086614284
        ]
      }
    },
    {
      "type": "Feature",
      "properties": {
        "norad_id": 66595,
        "name": "STARLINK-35711",
        "group": "last-30-days",
        "lat": 5.63818435593831,
        "lon": 120.34693948632389,
        "alt_km": 442.9392596886146,
        "timestamp": "2025-12-26T05:31:11.215236+00:00",
        "meta_object_name": "STARLINK-35711",
        "meta_object_id": "2025-270H",
        "meta_epoch": "2025-12-25T22:00:01.999584",
        "meta_mean_motion": 15.40679957,
        "meta_eccentricity": 0.00016557,
        "meta_inclination": 43.0003,
        "meta_ra_of_asc_node": 116.0713,
        "meta_arg_of_pericenter": 282.0105,
        "meta_mean_anomaly": 146.5562,
        "meta_ephemeris_type": 0,
        "meta_classification_type": "U",
        "meta_norad_cat_id": 66595,
        "meta_element_set_no": 999,
        "meta_rev_at_epoch": 610,
        "meta_bstar": 0.00073648977,
        "meta_mean_motion_dot": 0.00030564,
        "meta_mean_motion_ddot": 0,
        "tle_line1": "1 66595U 25270H   25359.91668981  .00030564  00000+0  73649-3 0  9998",
        "tle_line2": "2 66595  43.0003 116.0713 0001655 282.0105 146.5562 15.40679957  6106"
      },
      "geometry": {
        "type": "Point",
        "coordinates": [
          120.34693948632389,
          5.63818435593831
        ]
      }
    },
    {
      "type": "Feature",
      "properties": {
        "norad_id": 66596,
        "name": "STARLINK-35811",
        "group": "last-30-days",
        "lat": 39.810359148801055,
        "lon": 178.42340209898654,
        "alt_km": 437.994861009749,
        "timestamp": "2025-12-26T05:31:11.215246+00:00",
        "meta_object_name": "STARLINK-35811",
        "meta_object_id": "2025-270J",
        "meta_epoch": "2025-12-25T15:12:55.235232",
        "meta_mean_motion": 15.40706261,
        "meta_eccentricity": 8.16e-05,
        "meta_inclination": 42.9999,
        "meta_ra_of_asc_node": 118.4238,
        "meta_arg_of_pericenter": 242.406,
        "meta_mean_anomaly": 117.6713,
        "meta_ephemeris_type": 0,
        "meta_classification_type": "U",
        "meta_norad_cat_id": 66596,
        "meta_element_set_no": 999,
        "meta_rev_at_epoch": 644,
        "meta_bstar": 0.0016636,
        "meta_mean_motion_dot": 0.00069844,
        "meta_mean_motion_ddot": 0,
        "tle_line1": "1 66596U 25270J   25359.63397263  .00069844  00000+0  16636-2 0  9995",
        "tle_line2": "2 66596  42.9999 118.4238 0000816 242.4060 117.6713 15.40706261  6448"
      },
      "geometry": {
        "type": "Point",
        "coordinates": [
          178.42340209898654,
          39.810359148801055
        ]
      }
    }
  ]
}